ONEWEB-0205             
1 48226U 21031S   24215.60005277 -.00000863  00000+0 -23629-2 0  9992
2 48226  87.8925  65.6755 0001828  91.6376 268.4963 13.14494693158464
ONEWEB-0206             
1 48227U 21031T   24215.87756504  .00000238  00000+0  60700-3 0  9994
2 48227  87.8921  65.6082 0001907  91.7540 268.3808 13.14501574158459
ONEWEB-0182             
1 48228U 21031U   24215.87279947  .00000232  00000+0  59049-3 0  9994
2 48228  87.8927  65.6384 0001966  83.7066 276.4288 13.14504655158668
ONEWEB-0186             
1 48229U 21031V   24215.88390669  .00000243  00000+0  61965-3 0  9993
2 48229  87.8927  65.5998 0001719  85.5013 274.6313 13.14501069158617
ONEWEB-0181             
1 48230U 21031W   24215.86169282  .00000043  00000+0  81350-4 0  9997
2 48230  87.8925  65.6741 0001609  85.7491 274.3823 13.14504622158468
ONEWEB-0188             
1 48231U 21031X   24215.59529228  .00000088  00000+0  20221-3 0  9996
2 48231  87.8926  65.7223 0001784  86.3463 273.7871 13.14502222158332
ONEWEB-0220             
1 48232U 21031Y   24215.86327654  .00000004  00000+0 -24560-4 0  9996
2 48232  87.8918  65.6306 0001846  96.8230 263.3110 13.14504627158637
ONEWEB-0165             
1 48233U 21031Z   24215.66347545  .00000231  00000+0  58747-3 0  9990
2 48233  87.8927  65.6902 0001686  89.8595 270.2728 13.14504162158566
